[{"OBJECT_NAME":"STARLINK-32742","OBJECT_ID":"2025-008U","EPOCH":"2026-03-09T22:11:51.632160","MEAN_MOTION":15.27598516,"ECCENTRICITY":0.00015553,"INCLINATION":42.9999,"RA_OF_ASC_NODE":276.3047,"ARG_OF_PERICENTER":25.5196,"MEAN_ANOMALY":334.5732,"EPHEMERIS_TYPE":0,"CLASSIFICATION_TYPE":"U","NORAD_CAT_ID":62605,"ELEMENT_SET_NO":999,"REV_AT_EPOCH":6565,"BSTAR":0.0011855461,"MEAN_MOTION_DOT":0.00032524,"MEAN_MOTION_DDOT":0},{"OBJECT_NAME":"FLOCK 4G-36","OBJECT_ID":"2025-009BU","EPOCH":"2026-03-09T16:58:27.533568","MEAN_MOTION":15.27209548,"ECCENTRICITY":0.00034736,"INCLINATION":97.4053,"RA_OF_ASC_NODE":151.0513,"ARG_OF_PERICENTER":324.2456,"MEAN_ANOMALY":35.855,"EPHEMERIS_TYPE":0,"CLASSIFICATION_TYPE":"U","NORAD_CAT_ID":62675,"ELEMENT_SET_NO":999,"REV_AT_EPOCH":6370,"BSTAR":0.00051121743,"MEAN_MOTION_DOT":0.00013573,"MEAN_MOTION_DDOT":0}]
